ONEWEB-0216             
1 48801U 21045AL  24093.13454265  .00000176  00000+0  43294-3 0  9999
2 48801  87.8998  59.6194 0001879  72.9816 287.1520 13.15548913139440
ONEWEB-0239             
1 48802U 21045AM  24092.83503950  .00000055  00000+0  11309-3 0  9990
2 48802  87.9007  59.6479 0001078 107.5404 252.5844 13.15545618139464
ONEWEB-0249             
1 48967U 21060A   24092.80034805  .00000088  00000+0  19669-3 0  9997
2 48967  87.9139  29.2628 0001888  79.2455 280.8888 13.16596390134798
ONEWEB-0250             
1 48968U 21060B   24093.10909916  .00000083  00000+0  18378-3 0  9997
2 48968  87.9140  29.1851 0001572  85.3490 274.7820 13.16595016134810
ONEWEB-0252             
1 48970U 21060D   24092.83202957 -.00000013  00000+0 -68233-4 0  9991
2 48970  87.9141  29.2494 0001851  73.3889 286.7445 13.16594846134846
ONEWEB-0253             
1 48971U 21060E   24092.82091586  .00000119  00000+0  27875-3 0  9996
2 48971  87.9137  29.2653 0001559  74.9147 285.2156 13.16598470134769
ONEWEB-0254             
1 48972U 21060F   24093.21042077  .00000119  00000+0  27843-3 0  9997
2 48972  87.9143  29.1644 0001526  74.3168 285.8131 13.16596799134814
ONEWEB-0255             
1 48973U 21060G   24092.79244630 -.00000072  00000+0 -22275-3 0  9993
2 48973  87.9136  29.2826 0001819  80.4134 279.7202 13.16595709134840
